[{"OBJECT_NAME":"STARLINK-6292","OBJECT_ID":"2023-078J","EPOCH":"2026-03-09T21:29:43.429056","MEAN_MOTION":14.98278828,"ECCENTRICITY":0.00027903,"INCLINATION":69.9997,"RA_OF_ASC_NODE":304.0816,"ARG_OF_PERICENTER":269.9247,"MEAN_ANOMALY":90.1592,"EPHEMERIS_TYPE":0,"CLASSIFICATION_TYPE":"U","NORAD_CAT_ID":56775,"ELEMENT_SET_NO":999,"REV_AT_EPOCH":15369,"BSTAR":-0.00060460308,"MEAN_MOTION_DOT":-7.29e-5,"MEAN_MOTION_DDOT":0},{"OBJECT_NAME":"VELOX-I","OBJECT_ID":"2014-034E","EPOCH":"2026-03-09T23:01:40.038816","MEAN_MOTION":14.96870815,"ECCENTRICITY":0.00060607,"INCLINATION":98.2625,"RA_OF_ASC_NODE":328.3713,"ARG_OF_PERICENTER":237.6745,"MEAN_ANOMALY":122.3888,"EPHEMERIS_TYPE":0,"CLASSIFICATION_TYPE":"U","NORAD_CAT_ID":40057,"ELEMENT_SET_NO":999,"REV_AT_EPOCH":63175,"BSTAR":0.00054396772,"MEAN_MOTION_DOT":6.179e-5,"MEAN_MOTION_DDOT":0}]
